{
  "type": "FeatureCollection",
  "features": [
    {
      "type": "Feature",
      "properties": {
        "norad_id": 66889,
        "name": "STARLINK-35852",
        "group": "last-30-days",
        "lat": -3.9521973442584852,
        "lon": -117.75253567995756,
        "alt_km": 311.2911328577584,
        "timestamp": "2025-12-15T14:57:56.622910+00:00",
        "meta_object_name": "STARLINK-35852",
        "meta_object_id": "2025-283M",
        "meta_epoch": "2025-12-14T20:00:06.000192",
        "meta_mean_motion": 15.8968644,
        "meta_eccentricity": 7.054e-05,
        "meta_inclination": 53.1545,
        "meta_ra_of_asc_node": 63.2842,
        "meta_arg_of_pericenter": 64.2254,
        "meta_mean_anomaly": 279.1985,
        "meta_ephemeris_type": 0,
        "meta_classification_type": "U",
        "meta_norad_cat_id": 66889,
        "meta_element_set_no": 999,
        "meta_rev_at_epoch": 276,
        "meta_bstar": -0.005034932,
        "meta_mean_motion_dot": -0.01339705,
        "meta_mean_motion_ddot": 0,
        "tle_line1": "1 66889U 25283M   25348.83340278 -.01339705  00000+0 -50349-2 0  9996",
        "tle_line2": "2 66889  53.1545  63.2842 0000705  64.2254 279.1985 15.89686440  2769"
      },
      "geometry": {
        "type": "Point",
        "coordinates": [
          -117.75253567995756,
          -3.9521973442584852
        ]
      }
    },
    {
      "type": "Feature",
      "properties": {
        "norad_id": 66890,
        "name": "STARLINK-35885",
        "group": "last-30-days",
        "lat": -6.056811830026812,
        "lon": -116.16388257165474,
        "alt_km": 311.4795309166184,
        "timestamp": "2025-12-15T14:57:56.622919+00:00",
        "meta_object_name": "STARLINK-35885",
        "meta_object_id": "2025-283N",
        "meta_epoch": "2025-12-14T20:00:06.000192",
        "meta_mean_motion": 15.89698339,
        "meta_eccentricity": 7.267e-05,
        "meta_inclination": 53.1549,
        "meta_ra_of_asc_node": 63.279,
        "meta_arg_of_pericenter": 66.0275,
        "meta_mean_anomaly": 279.9749,
        "meta_ephemeris_type": 0,
        "meta_classification_type": "U",
        "meta_norad_cat_id": 66890,
        "meta_element_set_no": 999,
        "meta_rev_at_epoch": 276,
        "meta_bstar": -0.0049936717,
        "meta_mean_motion_dot": -0.01330776,
        "meta_mean_motion_ddot": 0,
        "tle_line1": "1 66890U 25283N   25348.83340278 -.01330776  00000+0 -49937-2 0  9998",
        "tle_line2": "2 66890  53.1549  63.2790 0000726  66.0275 279.9749 15.89698339  2769"
      },
      "geometry": {
        "type": "Point",
        "coordinates": [
          -116.16388257165474,
          -6.056811830026812
        ]
      }
    },
    {
      "type": "Feature",
      "properties": {
        "norad_id": 66891,
        "name": "STARLINK-35855",
        "group": "last-30-days",
        "lat": -8.19452254797714,
        "lon": -114.5338176729116,
        "alt_km": 311.6918845090413,
        "timestamp": "2025-12-15T14:57:56.622928+00:00",
        "meta_object_name": "STARLINK-35855",
        "meta_object_id": "2025-283P",
        "meta_epoch": "2025-12-14T20:00:06.000192",
        "meta_mean_motion": 15.89724963,
        "meta_eccentricity": 6.874e-05,
        "meta_inclination": 53.1548,
        "meta_ra_of_asc_node": 63.2736,
        "meta_arg_of_pericenter": 69.67,
        "meta_mean_anomaly": 278.9738,
        "meta_ephemeris_type": 0,
        "meta_classification_type": "U",
        "meta_norad_cat_id": 66891,
        "meta_element_set_no": 999,
        "meta_rev_at_epoch": 276,
        "meta_bstar": -0.0050388976,
        "meta_mean_motion_dot": -0.01342948,
        "meta_mean_motion_ddot": 0,
        "tle_line1": "1 66891U 25283P   25348.83340278 -.01342948  00000+0 -50389-2 0  9996",
        "tle_line2": "2 66891  53.1548  63.2736 0000687  69.6700 278.9738 15.89724963  2767"
      },
      "geometry": {
        "type": "Point",
        "coordinates": [
          -114.5338176729116,
          -8.19452254797714
        ]
      }
    },
    {
      "type": "Feature",
      "properties": {
        "norad_id": 66892,
        "name": "STARLINK-35883",
        "group": "last-30-days",
        "lat": -10.253273468503869,
        "lon": -112.94296910432205,
        "alt_km": 311.9781112173114,
        "timestamp": "2025-12-15T14:57:56.622937+00:00",
        "meta_object_name": "STARLINK-35883",
        "meta_object_id": "2025-283Q",
        "meta_epoch": "2025-12-14T20:00:06.000192",
        "meta_mean_motion": 15.89744183,
        "meta_eccentricity": 7.456e-05,
        "meta_inclination": 53.1548,
        "meta_ra_of_asc_node": 63.2679,
        "meta_arg_of_pericenter": 63.3523,
        "meta_mean_anomaly": 287.8323,
        "meta_ephemeris_type": 0,
        "meta_classification_type": "U",
        "meta_norad_cat_id": 66892,
        "meta_element_set_no": 999,
        "meta_rev_at_epoch": 270,
        "meta_bstar": -0.005036837,
        "meta_mean_motion_dot": -0.01343669,
        "meta_mean_motion_ddot": 0,
        "tle_line1": "1 66892U 25283Q   25348.83340278 -.01343669  00000+0 -50368-2 0  9995",
        "tle_line2": "2 66892  53.1548  63.2679 0000745  63.3523 287.8323 15.89744183  2702"
      },
      "geometry": {
        "type": "Point",
        "coordinates": [
          -112.94296910432205,
          -10.253273468503869
        ]
      }
    },
    {
      "type": "Feature",
      "properties": {
        "norad_id": 66893,
        "name": "STARLINK-36033",
        "group": "last-30-days",
        "lat": -12.232618989008063,
        "lon": -111.38737571739196,
        "alt_km": 312.1754720817007,
        "timestamp": "2025-12-15T14:57:56.622946+00:00",
        "meta_object_name": "STARLINK-36033",
        "meta_object_id": "2025-283R",
        "meta_epoch": "2025-12-14T20:00:06.000192",
        "meta_mean_motion": 15.89764625,
        "meta_eccentricity": 8.46e-05,
        "meta_inclination": 53.1547,
        "meta_ra_of_asc_node": 63.263,
        "meta_arg_of_pericenter": 65.303,
        "meta_mean_anomaly": 288.3234,
        "meta_ephemeris_type": 0,
        "meta_classification_type": "U",
        "meta_norad_cat_id": 66893,
        "meta_element_set_no": 999,
        "meta_rev_at_epoch": 276,
        "meta_bstar": -0.0050286351,
        "meta_mean_motion_dot": -0.01343053,
        "meta_mean_motion_ddot": 0,
        "tle_line1": "1 66893U 25283R   25348.83340278 -.01343053  00000+0 -50286-2 0  9992",
        "tle_line2": "2 66893  53.1547  63.2630 0000846  65.3030 288.3234 15.89764625  2762"
      },
      "geometry": {
        "type": "Point",
        "coordinates": [
          -111.38737571739196,
          -12.232618989008063
        ]
      }
    },
    {
      "type": "Feature",
      "properties": {
        "norad_id": 66894,
        "name": "STARLINK-35718",
        "group": "last-30-days",
        "lat": -14.636346646410113,
        "lon": -109.45645663055429,
        "alt_km": 312.4638914046718,
        "timestamp": "2025-12-15T14:57:56.622956+00:00",
        "meta_object_name": "STARLINK-35718",
        "meta_object_id": "2025-283S",
        "meta_epoch": "2025-12-14T20:00:06.000192",
        "meta_mean_motion": 15.89795074,
        "meta_eccentricity": 7.758e-05,
        "meta_inclination": 53.155,
        "meta_ra_of_asc_node": 63.2569,
        "meta_arg_of_pericenter": 64.3467,
        "meta_mean_anomaly": 292.3139,
        "meta_ephemeris_type": 0,
        "meta_classification_type": "U",
        "meta_norad_cat_id": 66894,
        "meta_element_set_no": 999,
        "meta_rev_at_epoch": 276,
        "meta_bstar": -0.0051227354,
        "meta_mean_motion_dot": -0.01366893,
        "meta_mean_motion_ddot": 0,
        "tle_line1": "1 66894U 25283S   25348.83340278 -.01366893  00000+0 -51227-2 0  9996",
        "tle_line2": "2 66894  53.1550  63.2569 0000775  64.3467 292.3139 15.89795074  2763"
      },
      "geometry": {
        "type": "Point",
        "coordinates": [
          -109.45645663055429,
          -14.636346646410113
        ]
      }
    },
    {
      "type": "Feature",
      "properties": {
        "norad_id": 66895,
        "name": "STARLINK-35971",
        "group": "last-30-days",
        "lat": -18.73300681802368,
        "lon": -106.02932205498622,
        "alt_km": 312.77638645508614,
        "timestamp": "2025-12-15T14:57:56.622965+00:00",
        "meta_object_name": "STARLINK-35971",
        "meta_object_id": "2025-283T",
        "meta_epoch": "2025-12-14T20:00:06.000192",
        "meta_mean_motion": 15.89843064,
        "meta_eccentricity": 7.5e-05,
        "meta_inclination": 53.1544,
        "meta_ra_of_asc_node": 63.2454,
        "meta_arg_of_pericenter": 68.3703,
        "meta_mean_anomaly": 293.4466,
        "meta_ephemeris_type": 0,
        "meta_classification_type": "U",
        "meta_norad_cat_id": 66895,
        "meta_element_set_no": 999,
        "meta_rev_at_epoch": 276,
        "meta_bstar": -0.0051636719,
        "meta_mean_motion_dot": -0.01379402,
        "meta_mean_motion_ddot": 0,
        "tle_line1": "1 66895U 25283T   25348.83340278 -.01379402  00000+0 -51637-2 0  9992",
        "tle_line2": "2 66895  53.1544  63.2454 0000750  68.3703 293.4466 15.89843064  2768"
      },
      "geometry": {
        "type": "Point",
        "coordinates": [
          -106.02932205498622,
          -18.73300681802368
        ]
      }
    }
  ]
}